[{"OBJECT_NAME":"ONEWEB-0094","OBJECT_ID":"2020-020AC","EPOCH":"2026-05-15T04:05:48.446304","MEAN_MOTION":13.17648467,"ECCENTRICITY":0.0001879,"INCLINATION":87.9173,"RA_OF_ASC_NODE":12.4103,"ARG_OF_PERICENTER":75.7969,"MEAN_ANOMALY":284.3371,"EPHEMERIS_TYPE":0,"CLASSIFICATION_TYPE":"U","NORAD_CAT_ID":45450,"ELEMENT_SET_NO":999,"REV_AT_EPOCH":30196,"BSTAR":0.00022711999999999998,"MEAN_MOTION_DOT":1.01e-06,"MEAN_MOTION_DDOT":0.0},{"OBJECT_NAME":"ONEWEB-0087","OBJECT_ID":"2020-020AD","EPOCH":"2026-05-15T05:22:03.346176","MEAN_MOTION":13.11419729,"ECCENTRICITY":0.0002067,"INCLINATION":87.8935,"RA_OF_ASC_NODE":27.5937,"ARG_OF_PERICENTER":77.3096,"MEAN_ANOMALY":282.8263,"EPHEMERIS_TYPE":0,"CLASSIFICATION_TYPE":"U","NORAD_CAT_ID":45451,"ELEMENT_SET_NO":999,"REV_AT_EPOCH":29826,"BSTAR":0.0014887000000000001,"MEAN_MOTION_DOT":5.4e-06,"MEAN_MOTION_DDOT":0.0},{"OBJECT_NAME":"ONEWEB-0082","OBJECT_ID":"2020-020AE","EPOCH":"2026-05-15T05:17:24.311328","MEAN_MOTION":13.11420259,"ECCENTRICITY":0.0002036,"INCLINATION":87.8926,"RA_OF_ASC_NODE":27.6139,"ARG_OF_PERICENTER":75.2831,"MEAN_ANOMALY":284.8523,"EPHEMERIS_TYPE":0,"CLASSIFICATION_TYPE":"U","NORAD_CAT_ID":45452,"ELEMENT_SET_NO":999,"REV_AT_EPOCH":29835,"BSTAR":0.001545,"MEAN_MOTION_DOT":5.6e-06,"MEAN_MOTION_DDOT":0.0},{"OBJECT_NAME":"ONEWEB-0050","OBJECT_ID":"2020-020AF","EPOCH":"2026-05-15T07:23:37.678272","MEAN_MOTION":14.90218514,"ECCENTRICITY":0.0006112,"INCLINATION":88.9298,"RA_OF_ASC_NODE":237.6724,"ARG_OF_PERICENTER":95.5016,"MEAN_ANOMALY":264.691,"EPHEMERIS_TYPE":0,"CLASSIFICATION_TYPE":"U","NORAD_CAT_ID":45453,"ELEMENT_SET_NO":999,"REV_AT_EPOCH":33548,"BSTAR":7.035400000000001e-05,"MEAN_MOTION_DOT":7.04e-06,"MEAN_MOTION_DDOT":0.0},{"OBJECT_NAME":"ONEWEB-0034","OBJECT_ID":"2020-020AG","EPOCH":"2026-05-15T05:58:18.548256","MEAN_MOTION":13.10930781,"ECCENTRICITY":0.0001834,"INCLINATION":87.8922,"RA_OF_ASC_NODE":27.6142,"ARG_OF_PERICENTER":79.3375,"MEAN_ANOMALY":280.7959,"EPHEMERIS_TYPE":0,"CLASSIFICATION_TYPE":"U","NORAD_CAT_ID":45454,"ELEMENT_SET_NO":999,"REV_AT_EPOCH":29827,"BSTAR":-0.00019469,"MEAN_MOTION_DOT":-5.6e-07,"MEAN_MOTION_DDOT":0.0},{"OBJECT_NAME":"ONEWEB-0060","OBJECT_ID":"2020-020AH","EPOCH":"2026-05-15T05:06:22.937472","MEAN_MOTION":13.11420267,"ECCENTRICITY":0.0002736,"INCLINATION":87.8922,"RA_OF_ASC_NODE":27.625,"ARG_OF_PERICENTER":65.349,"MEAN_ANOMALY":294.7923,"EPHEMERIS_TYPE":0,"CLASSIFICATION_TYPE":"U","NORAD_CAT_ID":45455,"ELEMENT_SET_NO":999,"REV_AT_EPOCH":29822,"BSTAR":0.00060055,"MEAN_MOTION_DOT":2.26e-06,"MEAN_MOTION_DDOT":0.0},{"OBJECT_NAME":"ONEWEB-0086","OBJECT_ID":"2020-020AJ","EPOCH":"2026-05-15T04:35:50.969760","MEAN_MOTION":13.114164,"ECCENTRICITY":0.0001984,"INCLINATION":87.8921,"RA_OF_ASC_NODE":27.6227,"ARG_OF_PERICENTER":58.2752,"MEAN_ANOMALY":301.857,"EPHEMERIS_TYPE":0,"CLASSIFICATION_TYPE":"U","NORAD_CAT_ID":45456,"ELEMENT_SET_NO":999,"REV_AT_EPOCH":29828,"BSTAR":-0.0012295000000000001,"MEAN_MOTION_DOT":-4.23e-06,"MEAN_MOTION_DDOT":0.0},{"OBJECT_NAME":"ONEWEB-0088","OBJECT_ID":"2020-020AK","EPOCH":"2026-05-15T05:54:00.527616","MEAN_MOTION":13.11415141,"ECCENTRICITY":0.0002075,"INCLINATION":87.8934,"RA_OF_ASC_NODE":27.5817,"ARG_OF_PERICENTER":90.8835,"MEAN_ANOMALY":269.253,"EPHEMERIS_TYPE":0,"CLASSIFICATION_TYPE":"U","NORAD_CAT_ID":45457,"ELEMENT_SET_NO":999,"REV_AT_EPOCH":29822,"BSTAR":0.0001193,"MEAN_MOTION_DOT":5.5e-07,"MEAN_MOTION_DDOT":0.0},{"OBJECT_NAME":"ONEWEB-0102","OBJECT_ID":"2020-100A","EPOCH":"2026-05-15T02:57:30.811392","MEAN_MOTION":13.12438283,"ECCENTRICITY":0.0001679,"INCLINATION":87.8961,"RA_OF_ASC_NODE":357.2517,"ARG_OF_PERICENTER":76.0859,"MEAN_ANOMALY":284.0457,"EPHEMERIS_TYPE":0,"CLASSIFICATION_TYPE":"U","NORAD_CAT_ID":47258,"ELEMENT_SET_NO":999,"REV_AT_EPOCH":26039,"BSTAR":0.0024671000000000003,"MEAN_MOTION_DOT":9e-06,"MEAN_MOTION_DDOT":0.0},{"OBJECT_NAME":"ONEWEB-0109","OBJECT_ID":"2020-100B","EPOCH":"2026-05-15T03:09:42.377472","MEAN_MOTION":13.12442847,"ECCENTRICITY":0.000169,"INCLINATION":87.8971,"RA_OF_ASC_NODE":357.2304,"ARG_OF_PERICENTER":82.7013,"MEAN_ANOMALY":277.4308,"EPHEMERIS_TYPE":0,"CLASSIFICATION_TYPE":"U","NORAD_CAT_ID":47259,"ELEMENT_SET_NO":999,"REV_AT_EPOCH":26022,"BSTAR":0.00080589,"MEAN_MOTION_DOT":3.03e-06,"MEAN_MOTION_DDOT":0.0},{"OBJECT_NAME":"ONEWEB-0110","OBJECT_ID":"2020-100C","EPOCH":"2026-05-15T03:48:44.325504","MEAN_MOTION":13.1244101,"ECCENTRICITY":0.0001849,"INCLINATION":87.897,"RA_OF_ASC_NODE":357.2095,"ARG_OF_PERICENTER":75.8874,"MEAN_ANOMALY":284.246,"EPHEMERIS_TYPE":0,"CLASSIFICATION_TYPE":"U","NORAD_CAT_ID":47260,"ELEMENT_SET_NO":999,"REV_AT_EPOCH":26039,"BSTAR":0.00040700999999999997,"MEAN_MOTION_DOT":1.59e-06,"MEAN_MOTION_DDOT":0.0},{"OBJECT_NAME":"ONEWEB-0111","OBJECT_ID":"2020-100D","EPOCH":"2026-05-15T02:42:51.662880","MEAN_MOTION":13.12443253,"ECCENTRICITY":0.0001904,"INCLINATION":87.8971,"RA_OF_ASC_NODE":357.2369,"ARG_OF_PERICENTER":82.4469,"MEAN_ANOMALY":277.6876,"EPHEMERIS_TYPE":0,"CLASSIFICATION_TYPE":"U","NORAD_CAT_ID":47261,"ELEMENT_SET_NO":999,"REV_AT_EPOCH":26022,"BSTAR":-0.00085853,"MEAN_MOTION_DOT":-2.96e-06,"MEAN_MOTION_DDOT":0.0},{"OBJECT_NAME":"ONEWEB-0114","OBJECT_ID":"2020-100E","EPOCH":"2026-05-15T03:26:46.804128","MEAN_MOTION":13.12441556,"ECCENTRICITY":0.0001595,"INCLINATION":87.8976,"RA_OF_ASC_NODE":357.2275,"ARG_OF_PERICENTER":92.9263,"MEAN_ANOMALY":267.2048,"EPHEMERIS_TYPE":0,"CLASSIFICATION_TYPE":"U","NORAD_CAT_ID":47262,"ELEMENT_SET_NO":999,"REV_AT_EPOCH":26018,"BSTAR":0.0012496,"MEAN_MOTION_DOT":4.62e-06,"MEAN_MOTION_DDOT":0.0},{"OBJECT_NAME":"ONEWEB-0117","OBJECT_ID":"2020-100F","EPOCH":"2026-05-15T03:14:34.313568","MEAN_MOTION":13.1244512,"ECCENTRICITY":0.0001777,"INCLINATION":87.897,"RA_OF_ASC_NODE":357.2215,"ARG_OF_PERICENTER":82.8537,"MEAN_ANOMALY":277.2793,"EPHEMERIS_TYPE":0,"CLASSIFICATION_TYPE":"U","NORAD_CAT_ID":47263,"ELEMENT_SET_NO":999,"REV_AT_EPOCH":26019,"BSTAR":0.0010667,"MEAN_MOTION_DOT":3.96e-06,"MEAN_MOTION_DDOT":0.0},{"OBJECT_NAME":"ONEWEB-0118","OBJECT_ID":"2020-100G","EPOCH":"2026-05-15T04:03:21.755520","MEAN_MOTION":13.12443532,"ECCENTRICITY":0.0001788,"INCLINATION":87.8968,"RA_OF_ASC_NODE":357.2178,"ARG_OF_PERICENTER":94.6146,"MEAN_ANOMALY":265.5187,"EPHEMERIS_TYPE":0,"CLASSIFICATION_TYPE":"U","NORAD_CAT_ID":47264,"ELEMENT_SET_NO":999,"REV_AT_EPOCH":26039,"BSTAR":-0.00047276,"MEAN_MOTION_DOT":-1.57e-06,"MEAN_MOTION_DDOT":0.0},{"OBJECT_NAME":"ONEWEB-0119","OBJECT_ID":"2020-100H","EPOCH":"2026-05-15T02:50:10.136832","MEAN_MOTION":13.12443531,"ECCENTRICITY":0.0001764,"INCLINATION":87.8961,"RA_OF_ASC_NODE":357.2471,"ARG_OF_PERICENTER":84.4571,"MEAN_ANOMALY":275.6759,"EPHEMERIS_TYPE":0,"CLASSIFICATION_TYPE":"U","NORAD_CAT_ID":47265,"ELEMENT_SET_NO":999,"REV_AT_EPOCH":26036,"BSTAR":-0.0011674,"MEAN_MOTION_DOT":-4.07e-06,"MEAN_MOTION_DDOT":0.0}]