ONEWEB-0094             
1 45450U 20020AC  26135.17069961  .00000101  00000+0  22712-3 0  9996
2 45450  87.9173  12.4103 0001879  75.7969 284.3371 13.17648467301968
ONEWEB-0087             
1 45451U 20020AD  26135.22364984  .00000540  00000+0  14887-2 0  9996
2 45451  87.8935  27.5937 0002067  77.3096 282.8263 13.11419729298267
ONEWEB-0082             
1 45452U 20020AE  26135.22042027  .00000560  00000+0  15450-2 0  9997
2 45452  87.8926  27.6139 0002036  75.2831 284.8523 13.11420259298354
ONEWEB-0050             
1 45453U 20020AF  26135.30807498  .00000704  00000+0  70354-4 0  9994
2 45453  88.9298 237.6724 0006112  95.5016 264.6910 14.90218514335480
ONEWEB-0034             
1 45454U 20020AG  26135.24882579 -.00000056  00000+0 -19469-3 0  9992
2 45454  87.8922  27.6142 0001834  79.3375 280.7959 13.10930781298273
ONEWEB-0060             
1 45455U 20020AH  26135.21276548  .00000226  00000+0  60055-3 0  9997
2 45455  87.8922  27.6250 0002736  65.3490 294.7923 13.11420267298224
ONEWEB-0086             
1 45456U 20020AJ  26135.19156215 -.00000423  00000+0 -12295-2 0  9996
2 45456  87.8921  27.6227 0001984  58.2752 301.8570 13.11416400298282
ONEWEB-0088             
1 45457U 20020AK  26135.24583944  .00000055  00000+0  11930-3 0  9991
2 45457  87.8934  27.5817 0002075  90.8835 269.2530 13.11415141298225
ONEWEB-0102             
1 47258U 20100A   26135.12327328  .00000900  00000+0  24671-2 0  9994
2 47258  87.8961 357.2517 0001679  76.0859 284.0457 13.12438283260390
ONEWEB-0109             
1 47259U 20100B   26135.13174048  .00000303  00000+0  80589-3 0  9993
2 47259  87.8971 357.2304 0001690  82.7013 277.4308 13.12442847260229
ONEWEB-0110             
1 47260U 20100C   26135.15884636  .00000159  00000+0  40701-3 0  9999
2 47260  87.8970 357.2095 0001849  75.8874 284.2460 13.12441010260395
ONEWEB-0111             
1 47261U 20100D   26135.11309795 -.00000296  00000+0 -85853-3 0  9995
2 47261  87.8971 357.2369 0001904  82.4469 277.6876 13.12443253260227
ONEWEB-0114             
1 47262U 20100E   26135.14359727  .00000462  00000+0  12496-2 0  9994
2 47262  87.8976 357.2275 0001595  92.9263 267.2048 13.12441556260188
ONEWEB-0117             
1 47263U 20100F   26135.13511937  .00000396  00000+0  10667-2 0  9991
2 47263  87.8970 357.2215 0001777  82.8537 277.2793 13.12445120260191
ONEWEB-0118             
1 47264U 20100G   26135.16900180 -.00000157  00000+0 -47276-3 0  9991
2 47264  87.8968 357.2178 0001788  94.6146 265.5187 13.12443532260390
ONEWEB-0119             
1 47265U 20100H   26135.11817288 -.00000407  00000+0 -11674-2 0  9993
2 47265  87.8961 357.2471 0001764  84.4571 275.6759 13.12443531260366
